IRIDIUM 39              
1 25042U 97069D   25365.10131073  .00001391  00000+0  35702-3 0  9994
2 25042  86.3932 126.7577 0017982  15.3488 344.8258 14.49537903477486
IRIDIUM 38              
1 25043U 97069E   25364.92673517  .00000928  00000+0  29865-3 0  9996
2 25043  86.3985 150.4607 0003011 131.8467 228.2988 14.38335039474231
IRIDIUM 42              
1 25077U 97077A   25364.96646272  .00000853  00000+0  28385-3 0  9997
2 25077  86.3990 156.8545 0002062 114.5327 245.6085 14.36551262469447
IRIDIUM 44              
1 25078U 97077B   25365.08402573  .00000746  00000+0  22879-3 0  9999
2 25078  86.3984 138.2150 0003925  96.7677 263.3969 14.40449893472044
IRIDIUM 45              
1 25104U 97082A   25364.83569020  .00051234  00000+0  14113-2 0  9997
2 25104  86.3545 311.7528 0093140 311.8223  47.5098 15.32590002482047
IRIDIUM 24              
1 25105U 97082B   25365.07877170  .00000941  00000+0  27873-3 0  9990
2 25105  86.3911 356.7691 0012618 138.8391 221.3763 14.42348691471593
IRIDIUM 51              
1 25262U 98018A   25365.13727248  .00165371  00000+0  14959-2 0  9990
2 25262  86.3719 316.7707 0046547 194.1234 165.8736 15.66165499477527
IRIDIUM 57              
1 25273U 98019B   25365.09774765  .00000618  00000+0  20592-3 0  9997
2 25273  86.3941  62.6888 0002258  96.6762 263.4692 14.36066913453040
